M2 PATHFINDER           
1 45727U 20037E   20177.59196428  .00000328  00000-0  38531-4 0  9995
2 45727  97.7015 357.5481 0011503 271.4733  88.5198 14.91199782  1849
